{"type": "FeatureCollection", "features": [{"type": "Feature", "properties": {"norad_id": 28054, "name": "DMSP 5D-3 F16 (USA 172)", "group": "weather", "lat": 50.38814194871386, "lon": -153.16416381424557, "alt_km": 843.6912619467048, "timestamp": "2025-12-24T05:51:19.248514+00:00", "meta": {"OBJECT_NAME": "DMSP 5D-3 F16 (USA 172)", "OBJECT_ID": "2003-048A", "EPOCH": "2025-12-23T23:00:36.160704", "MEAN_MOTION": 14.14428083, "ECCENTRICITY": 0.00062519, "INCLINATION": 99.0038, "RA_OF_ASC_NODE": 15.5036, "ARG_OF_PERICENTER": 284.8895, "MEAN_ANOMALY": 192.2905, "EPHEMERIS_TYPE": 0, "CLASSIFICATION_TYPE": "U", "NORAD_CAT_ID": 28054, "ELEMENT_SET_NO": 999, "REV_AT_EPOCH": 14471, "BSTAR": 8.0979925e-05, "MEAN_MOTION_DOT": 1.1e-06, "MEAN_MOTION_DDOT": 0}, "tle": {"line1": "1 28054U 03048A   25357.95875186  .00000110  00000+0  80980-4 0  9995", "line2": "2 28054  99.0038  15.5036 0006251 284.8895 192.2905 14.14428083144718"}}, "geometry": {"type": "Point", "coordinates": [-153.16416381424557, 50.38814194871386]}}, {"type": "Feature", "properties": {"norad_id": 28912, "name": "METEOSAT-9 (MSG-2)", "group": "weather", "lat": 1.6476770959712521, "lon": -134.68593548250198, "alt_km": 35880.660690180695, "timestamp": "2025-12-24T05:51:19.248564+00:00", "meta": {"OBJECT_NAME": "METEOSAT-9 (MSG-2)", "OBJECT_ID": "2005-049B", "EPOCH": "2025-12-23T18:29:06.029088", "MEAN_MOTION": 1.00268078, "ECCENTRICITY": 0.00595948, "INCLINATION": 8.9546, "RA_OF_ASC_NODE": 55.8585, "ARG_OF_PERICENTER": 281.8406, "MEAN_ANOMALY": 77.1031, "EPHEMERIS_TYPE": 0, "CLASSIFICATION_TYPE": "U", "NORAD_CAT_ID": 28912, "ELEMENT_SET_NO": 999, "REV_AT_EPOCH": 523, "BSTAR": 0, "MEAN_MOTION_DOT": 1.44e-06, "MEAN_MOTION_DDOT": 0}, "tle": {"line1": "1 28912U 05049B   25357.77020867  .00000144  00000+0  00000+0 0  9996", "line2": "2 28912   8.9546  55.8585 0059594 281.8406  77.1031  1.00268078  5234"}}, "geometry": {"type": "Point", "coordinates": [-134.68593548250198, 1.6476770959712521]}}, {"type": "Feature", "properties": {"norad_id": 29522, "name": "DMSP 5D-3 F17 (USA 191)", "group": "weather", "lat": 81.22047100283166, "lon": -81.45791396159075, "alt_km": 836.5056344432733, "timestamp": "2025-12-24T05:51:19.248581+00:00", "meta": {"OBJECT_NAME": "DMSP 5D-3 F17 (USA 191)", "OBJECT_ID": "2006-050A", "EPOCH": "2025-12-23T22:38:45.805344", "MEAN_MOTION": 14.14924256, "ECCENTRICITY": 0.00098854, "INCLINATION": 98.7392, "RA_OF_ASC_NODE": 3.0994, "ARG_OF_PERICENTER": 191.4164, "MEAN_ANOMALY": 168.6787, "EPHEMERIS_TYPE": 0, "CLASSIFICATION_TYPE": "U", "NORAD_CAT_ID": 29522, "ELEMENT_SET_NO": 999, "REV_AT_EPOCH": 98763, "BSTAR": 9.8124875e-05, "MEAN_MOTION_DOT": 1.46e-06, "MEAN_MOTION_DDOT": 0}, "tle": {"line1": "1 29522U 06050A   25357.94358571  .00000146  00000+0  98125-4 0  9994", "line2": "2 29522  98.7392   3.0994 0009885 191.4164 168.6787 14.14924256987635"}}, "geometry": {"type": "Point", "coordinates": [-81.45791396159075, 81.22047100283166]}}, {"type": "Feature", "properties": {"norad_id": 32958, "name": "FENGYUN 3A", "group": "weather", "lat": -6.654311063914452, "lon": -61.45061168358582, "alt_km": 829.763959918635, "timestamp": "2025-12-24T05:51:19.248595+00:00", "meta": {"OBJECT_NAME": "FENGYUN 3A", "OBJECT_ID": "2008-026A", "EPOCH": "2025-12-23T12:58:13.024128", "MEAN_MOTION": 14.19517741, "ECCENTRICITY": 0.00076337, "INCLINATION": 98.6714, "RA_OF_ASC_NODE": 296.8405, "ARG_OF_PERICENTER": 275.4269, "MEAN_ANOMALY": 84.6036, "EPHEMERIS_TYPE": 0, "CLASSIFICATION_TYPE": "U", "NORAD_CAT_ID": 32958, "ELEMENT_SET_NO": 999, "REV_AT_EPOCH": 91048, "BSTAR": 6.5348721e-05, "MEAN_MOTION_DOT": 9.4e-07, "MEAN_MOTION_DDOT": 0}, "tle": {"line1": "1 32958U 08026A   25357.54042852  .00000094  00000+0  65349-4 0  9998", "line2": "2 32958  98.6714 296.8405 0007633 275.4269  84.6036 14.19517741910481"}}, "geometry": {"type": "Point", "coordinates": [-61.45061168358582, -6.654311063914452]}}, {"type": "Feature", "properties": {"norad_id": 35491, "name": "GOES 14", "group": "weather", "lat": -0.4328865491682581, "lon": 63.84877059392465, "alt_km": 35837.42286627077, "timestamp": "2025-12-24T05:51:19.248609+00:00", "meta": {"OBJECT_NAME": "GOES 14", "OBJECT_ID": "2009-033A", "EPOCH": "2025-12-23T16:00:05.299200", "MEAN_MOTION": 1.00097003, "ECCENTRICITY": 6.113e-05, "INCLINATION": 1.2304, "RA_OF_ASC_NODE": 85.2938, "ARG_OF_PERICENTER": 188.8925, "MEAN_ANOMALY": 301.646, "EPHEMERIS_TYPE": 0, "CLASSIFICATION_TYPE": "U", "NORAD_CAT_ID": 35491, "ELEMENT_SET_NO": 999, "REV_AT_EPOCH": 483, "BSTAR": 0, "MEAN_MOTION_DOT": 3.1e-07, "MEAN_MOTION_DDOT": 0}, "tle": {"line1": "1 35491U 09033A   25357.66672800  .00000031  00000+0  00000+0 0  9996", "line2": "2 35491   1.2304  85.2938 0000611 188.8925 301.6460  1.00097003  4833"}}, "geometry": {"type": "Point", "coordinates": [63.84877059392465, -0.4328865491682581]}}, {"type": "Feature", "properties": {"norad_id": 35951, "name": "DMSP 5D-3 F18 (USA 210)", "group": "weather", "lat": -48.71597750444773, "lon": -15.149916404507003, "alt_km": 848.6475453115781, "timestamp": "2025-12-24T05:51:19.248622+00:00", "meta": {"OBJECT_NAME": "DMSP 5D-3 F18 (USA 210)", "OBJECT_ID": "2009-057A", "EPOCH": "2025-12-23T21:36:07.383744", "MEAN_MOTION": 14.14776433, "ECCENTRICITY": 0.00117433, "INCLINATION": 98.8848, "RA_OF_ASC_NODE": 334.2457, "ARG_OF_PERICENTER": 33.2651, "MEAN_ANOMALY": 326.9258, "EPHEMERIS_TYPE": 0, "CLASSIFICATION_TYPE": "U", "NORAD_CAT_ID": 35951, "ELEMENT_SET_NO": 999, "REV_AT_EPOCH": 83480, "BSTAR": 0.00016615797, "MEAN_MOTION_DOT": 2.76e-06, "MEAN_MOTION_DDOT": 0}, "tle": {"line1": "1 35951U 09057A   25357.90008546  .00000276  00000+0  16616-3 0  9995", "line2": "2 35951  98.8848 334.2457 0011743  33.2651 326.9258 14.14776433834802"}}, "geometry": {"type": "Point", "coordinates": [-15.149916404507003, -48.71597750444773]}}, {"type": "Feature", "properties": {"norad_id": 36411, "name": "EWS-G2 (GOES 15)", "group": "weather", "lat": 0.32312855925967265, "lon": -117.8207755919995, "alt_km": 35764.56302030625, "timestamp": "2025-12-24T05:51:19.248635+00:00", "meta": {"OBJECT_NAME": "EWS-G2 (GOES 15)", "OBJECT_ID": "2010-008A", "EPOCH": "2025-12-23T21:59:01.074624", "MEAN_MOTION": 1.00271067, "ECCENTRICITY": 0.00055393, "INCLINATION": 0.8396, "RA_OF_ASC_NODE": 86.0712, "ARG_OF_PERICENTER": 178.5961, "MEAN_ANOMALY": 219.1412, "EPHEMERIS_TYPE": 0, "CLASSIFICATION_TYPE": "U", "NORAD_CAT_ID": 36411, "ELEMENT_SET_NO": 999, "REV_AT_EPOCH": 5788, "BSTAR": 0, "MEAN_MOTION_DOT": 5.9e-07, "MEAN_MOTION_DDOT": 0}, "tle": {"line1": "1 36411U 10008A   25357.91598466  .00000059  00000+0  00000+0 0  9996", "line2": "2 36411   0.8396  86.0712 0005539 178.5961 219.1412  1.00271067 57888"}}, "geometry": {"type": "Point", "coordinates": [-117.8207755919995, 0.32312855925967265]}}, {"type": "Feature", "properties": {"norad_id": 36744, "name": "COMS 1", "group": "weather", "lat": -3.4205789958134605, "lon": -51.05379623278303, "alt_km": 35783.709935593586, "timestamp": "2025-12-24T05:51:19.248648+00:00", "meta": {"OBJECT_NAME": "COMS 1", "OBJECT_ID": "2010-032A", "EPOCH": "2025-12-23T17:09:58.604832", "MEAN_MOTION": 1.00270685, "ECCENTRICITY": 7.997e-05, "INCLINATION": 4.3651, "RA_OF_ASC_NODE": 77.8741, "ARG_OF_PERICENTER": 212.8601, "MEAN_ANOMALY": 187.4375, "EPHEMERIS_TYPE": 0, "CLASSIFICATION_TYPE": "U", "NORAD_CAT_ID": 36744, "ELEMENT_SET_NO": 999, "REV_AT_EPOCH": 4933, "BSTAR": 0, "MEAN_MOTION_DOT": -3.25e-06, "MEAN_MOTION_DDOT": 0}, "tle": {"line1": "1 36744U 10032A   25357.71526163 -.00000325  00000+0  00000+0 0  9992", "line2": "2 36744   4.3651  77.8741 0000799 212.8601 187.4375  1.00270685 49337"}}, "geometry": {"type": "Point", "coordinates": [-51.05379623278303, -3.4205789958134605]}}, {"type": "Feature", "properties": {"norad_id": 37214, "name": "FENGYUN 3B", "group": "weather", "lat": -79.24842670358399, "lon": 94.76822802000015, "alt_km": 840.0872962454323, "timestamp": "2025-12-24T05:51:19.248664+00:00", "meta": {"OBJECT_NAME": "FENGYUN 3B", "OBJECT_ID": "2010-059A", "EPOCH": "2025-12-23T23:59:55.158144", "MEAN_MOTION": 14.14791552, "ECCENTRICITY": 0.00215401, "INCLINATION": 98.9887, "RA_OF_ASC_NODE": 38.055, "ARG_OF_PERICENTER": 325.5143, "MEAN_ANOMALY": 148.3912, "EPHEMERIS_TYPE": 0, "CLASSIFICATION_TYPE": "U", "NORAD_CAT_ID": 37214, "ELEMENT_SET_NO": 999, "REV_AT_EPOCH": 78265, "BSTAR": -2.3134948e-05, "MEAN_MOTION_DOT": -9e-07, "MEAN_MOTION_DDOT": 0}, "tle": {"line1": "1 37214U 10059A   25357.99994396 -.00000090  00000+0 -23135-4 0  9990", "line2": "2 37214  98.9887  38.0550 0021540 325.5143 148.3912 14.14791552782659"}}, "geometry": {"type": "Point", "coordinates": [94.76822802000015, -79.24842670358399]}}, {"type": "Feature", "properties": {"norad_id": 37849, "name": "SUOMI NPP", "group": "weather", "lat": -47.24274476474621, "lon": -54.89698893582669, "alt_km": 835.2396321791657, "timestamp": "2025-12-24T05:51:19.248675+00:00", "meta": {"OBJECT_NAME": "SUOMI NPP", "OBJECT_ID": "2011-061A", "EPOCH": "2025-12-22T15:10:21.732672", "MEAN_MOTION": 14.19516903, "ECCENTRICITY": 0.00024883, "INCLINATION": 98.7787, "RA_OF_ASC_NODE": 293.8852, "ARG_OF_PERICENTER": 103.0781, "MEAN_ANOMALY": 257.0673, "EPHEMERIS_TYPE": 0, "CLASSIFICATION_TYPE": "U", "NORAD_CAT_ID": 37849, "ELEMENT_SET_NO": 999, "REV_AT_EPOCH": 73339, "BSTAR": 6.3406935e-05, "MEAN_MOTION_DOT": 8.9e-07, "MEAN_MOTION_DDOT": 0}, "tle": {"line1": "1 37849U 11061A   25356.63219598  .00000089  00000+0  63407-4 0  9994", "line2": "2 37849  98.7787 293.8852 0002488 103.0781 257.0673 14.19516903733392"}}, "geometry": {"type": "Point", "coordinates": [-54.89698893582669, -47.24274476474621]}}]}